[{"OBJECT_NAME":"STARLINK-36754","OBJECT_ID":"2026-026E","EPOCH":"2026-03-09T22:00:01.999584","MEAN_MOTION":15.47573266,"ECCENTRICITY":0.00014,"INCLINATION":97.2847,"RA_OF_ASC_NODE":123.4211,"ARG_OF_PERICENTER":67.9715,"MEAN_ANOMALY":323.3817,"EPHEMERIS_TYPE":0,"CLASSIFICATION_TYPE":"U","NORAD_CAT_ID":67725,"ELEMENT_SET_NO":999,"REV_AT_EPOCH":535,"BSTAR":-0.046489965,"MEAN_MOTION_DOT":-0.02120238,"MEAN_MOTION_DDOT":0},{"OBJECT_NAME":"FREGAT DEB","OBJECT_ID":"2011-037AB","EPOCH":"2026-03-09T00:44:47.826240","MEAN_MOTION":13.5498978,"ECCENTRICITY":0.08327263,"INCLINATION":51.2024,"RA_OF_ASC_NODE":351.4028,"ARG_OF_PERICENTER":105.3557,"MEAN_ANOMALY":264.0839,"EPHEMERIS_TYPE":0,"CLASSIFICATION_TYPE":"U","NORAD_CAT_ID":45635,"ELEMENT_SET_NO":999,"REV_AT_EPOCH":24756,"BSTAR":0.012231007,"MEAN_MOTION_DOT":0.00094296,"MEAN_MOTION_DDOT":0}]
